[{"OBJECT_NAME":"HULIANWANG DIGUI-21","OBJECT_ID":"2025-086B","EPOCH":"2026-03-09T21:54:40.925952","MEAN_MOTION":13.24422255,"ECCENTRICITY":0.00017235,"INCLINATION":86.5151,"RA_OF_ASC_NODE":346.5947,"ARG_OF_PERICENTER":94.6569,"MEAN_ANOMALY":265.4762,"EPHEMERIS_TYPE":0,"CLASSIFICATION_TYPE":"U","NORAD_CAT_ID":63688,"ELEMENT_SET_NO":999,"REV_AT_EPOCH":4172,"BSTAR":6.2460039e-5,"MEAN_MOTION_DOT":4.1e-7,"MEAN_MOTION_DDOT":0},{"OBJECT_NAME":"UNKNOWN","OBJECT_ID":"","EPOCH":"2026-03-07T06:58:26.090400","MEAN_MOTION":12.80986541,"ECCENTRICITY":0.0329232,"INCLINATION":103.8973,"RA_OF_ASC_NODE":90.9647,"ARG_OF_PERICENTER":333.0579,"MEAN_ANOMALY":25.3734,"EPHEMERIS_TYPE":0,"CLASSIFICATION_TYPE":"U","NORAD_CAT_ID":270010,"ELEMENT_SET_NO":999,"REV_AT_EPOCH":29118,"BSTAR":0.015197916,"MEAN_MOTION_DOT":4.349e-5,"MEAN_MOTION_DDOT":0}]
